TRANSPORTER-12 OBJECT AZ
1 62656U 25009AZ  26068.71026235  .00016057  00000+0  54903-3 0  9991
2 62656  97.3981 151.9913 0000987  45.3581 314.7740 15.30349724 63792
STARLINK-33843          
1 63507U 25071Q   26068.51866243  .00033475  00000+0  11376-2 0  9994
2 63507  53.1604 140.6904 0001371  71.6545 288.4605 15.30190705 52726
